ONEWEB-0553             
1 56055U 23043K   23342.26261695  .00000036  00000+0  49264-4 0  9991
2 56055  87.9601  52.2720 0002593 129.0649 231.0720 13.29908929 37650
ONEWEB-0554             
1 56056U 23043L   23342.24841528  .00000006  00000+0 -16186-4 0  9994
2 56056  87.9576  52.2922 0001467  96.1757 263.9549 13.29740747 37632
ONEWEB-0555             
1 56057U 23043M   23342.26219863 -.00000011  00000+0 -52745-4 0  9996
2 56057  87.9792  52.2563 0002177  93.1541 266.9847 13.29944302 37649
ONEWEB-0557             
1 56058U 23043N   23342.15726842  .00000016  00000+0  67877-5 0  9991
2 56058  87.9592  52.3124 0002629  59.8771 300.2628 13.29935001 37621
ONEWEB-0558             
1 56059U 23043P   23342.68742608 -.00000025  00000+0 -92518-4 0  9999
2 56059  87.9264  67.4269 0001961 123.1026 237.0296 13.21825008 36502
ONEWEB-0559             
1 56060U 23043Q   23342.67639763  .00000041  00000+0  67581-4 0  9995
2 56060  87.9261  67.4297 0001051 114.5066 245.6178 13.21828501 36516
ONEWEB-0566             
1 56061U 23043R   23342.67007831  .00000035  00000+0  52866-4 0  9994
2 56061  87.9260  67.4326 0001658 130.3862 229.7417 13.21826475 36496
ONEWEB-0568             
1 56062U 23043S   23342.14212916  .00000037  00000+0  52043-4 0  9998
2 56062  87.9814  52.2673 0002537  85.7827 274.3601 13.29625662 37642
